NORAD_CAT_ID,OBJECT_NAME,OBJECT_TYPE,EPOCH,MEAN_MOTION,ECCENTRICITY,INCLINATION,RA_OF_ASC_NODE,ARG_OF_PERICENTER,MEAN_ANOMALY,BSTAR,MEAN_MOTION_DOT,MEAN_MOTION_DDOT,TLE_LINE0,TLE_LINE1,TLE_LINE2,SEMIMAJOR_AXIS,PERIOD,APOGEE,PERIGEE,DECAYED
56450.0,STARLINK-5970,PAYLOAD,2024-03-05 14:07:24,14.9831686,0.0002951,69.9994,195.4325,274.4759,85.6063,-0.00015868,-1.985e-05,0.0,0 STARLINK-5970,1 56450U 23064C   24065.58847451 -.00001985  00000-0 -15868-3 0  9990,2 56450  69.9994 195.4325 0002951 274.4759  85.6063 14.98316860 45285,6950.234,96.108,574.15,570.048,0.0
56450.0,STARLINK-5970,PAYLOAD,2024-03-05 18:55:48,14.98318507,0.0002977,70.0004,194.928,269.8676,90.2142,-0.00015452,-1.936e-05,0.0,0 STARLINK-5970,1 56450U 23064C   24065.78875346 -.00001936  00000-0 -15452-3 0  9991,2 56450  70.0004 194.9280 0002977 269.8676  90.2142 14.98318507 45671,6950.228,96.108,574.163,570.024,0.0
56450.0,STARLINK-5970,PAYLOAD,2024-03-06 10:57:08,14.98334472,0.0003202,69.9999,193.2448,271.2077,88.8716,-0.0001195,-1.519e-05,0.0,0 STARLINK-5970,1 56450U 23064C   24066.45634352 -.00001519  00000-0 -11950-3 0  9992,2 56450  69.9999 193.2448 0003202 271.2077  88.8716 14.98334472 45773,6950.179,96.107,574.27,569.819,0.0
56450.0,STARLINK-5970,PAYLOAD,2024-03-06 14:09:24,14.9833428,0.0002997,70.0004,192.9086,271.415,88.6666,-8.7849e-05,-1.141e-05,0.0,0 STARLINK-5970,1 56450U 23064C   24066.58986249 -.00001141  00000-0 -87849-4 0  9993,2 56450  70.0004 192.9086 0002997 271.4150  88.6666 14.98334280 45433,6950.18,96.107,574.128,569.962,0.0
56450.0,STARLINK-5970,PAYLOAD,2024-03-06 17:21:39,14.98339887,0.0002934,70.0001,192.5716,267.7162,92.3661,-2.7006e-05,-4.15e-06,0.0,0 STARLINK-5970,1 56450U 23064C   24066.72337688 -.00000415  00000-0 -27006-4 0  9998,2 56450  70.0001 192.5716 0002934 267.7162  92.3661 14.98339887 45815,6950.162,96.106,574.066,569.988,0.0
56450.0,STARLINK-5970,PAYLOAD,2024-03-07 14:11:25,14.98317786,0.0002625,70.0007,190.3847,261.3326,98.7535,0.00018814,2.152e-05,0.0,0 STARLINK-5970,1 56450U 23064C   24067.59126700  .00002152  00000-0  18814-3 0  9999,2 56450  70.0007 190.3847 0002625 261.3326  98.7535 14.98317786 45589,6950.231,96.108,573.92,570.271,0.0
56450.0,STARLINK-5970,PAYLOAD,2024-03-08 12:37:18,14.98333106,0.0002758,70.0009,188.0285,265.3178,94.7666,2.5455e-05,2.11e-06,0.0,0 STARLINK-5970,1 56450U 23064C   24068.52590301  .00000211  00000-0  25455-4 0  9999,2 56450  70.0009 188.0285 0002758 265.3178  94.7666 14.98333106 46088,6950.183,96.107,573.965,570.131,0.0
56450.0,STARLINK-5970,PAYLOAD,2024-03-08 14:13:25,14.98336168,0.0002746,70.0005,187.8585,259.684,100.401,2.3778e-05,1.91e-06,0.0,0 STARLINK-5970,1 56450U 23064C   24068.59266030  .00000191  00000-0  23778-4 0  9998,2 56450  70.0005 187.8585 0002746 259.6840 100.4010 14.98336168 45733,6950.174,96.107,573.947,570.13,0.0
56450.0,STARLINK-5970,PAYLOAD,2024-03-09 14:15:26,14.98331593,0.0002902,70.0002,185.3334,265.1416,94.9411,1.2975e-05,6.2e-07,0.0,0 STARLINK-5970,1 56450U 23064C   24069.59406219  .00000062  00000-0  12975-4 0  9998,2 56450  70.0002 185.3334 0002902 265.1416  94.9411 14.98331593 45885,6950.188,96.107,574.07,570.036,0.0
56450.0,STARLINK-5970,PAYLOAD,2024-03-10 14:17:27,14.98334155,0.0003078,69.9999,182.8094,268.314,91.7667,-2.5711e-05,-4e-06,0.0,0 STARLINK-5970,1 56450U 23064C   24070.59546037 -.00000400  00000-0 -25711-4 0  9993,2 56450  69.9999 182.8094 0003078 268.3140  91.7667 14.98334155 46039,6950.18,96.107,574.184,569.906,0.0
56450.0,STARLINK-5970,PAYLOAD,2024-03-11 14:19:28,14.98332718,0.0003134,70.0,180.2851,268.4075,91.6725,2.8556e-05,2.48e-06,0.0,0 STARLINK-5970,1 56450U 23064C   24071.59685963  .00000248  00000-0  28556-4 0  9994,2 56450  70.0000 180.2851 0003134 268.4075  91.6725 14.98332718 46182,6950.184,96.107,574.228,569.871,0.0
56450.0,STARLINK-5970,PAYLOAD,2024-03-12 11:09:15,14.98323291,0.0002994,70.0003,178.0972,267.3455,92.7362,-6.4765e-07,-1.01e-06,0.0,0 STARLINK-5970,1 56450U 23064C   24072.46475945 -.00000101  00000-0 -64765-6 0  9992,2 56450  70.0003 178.0972 0002994 267.3455  92.7362 14.98323291 46676,6950.214,96.107,574.16,569.998,0.0
56450.0,STARLINK-5970,PAYLOAD,2024-03-12 17:33:47,14.98324757,0.0002809,70.0008,177.4248,263.2132,96.8707,1.4003e-05,7.4e-07,0.0,0 STARLINK-5970,1 56450U 23064C   24072.73179964  .00000074  00000-0  14003-4 0  9999,2 56450  70.0008 177.4248 0002809 263.2132  96.8707 14.98324757 46353,6950.209,96.107,574.026,570.122,0.0
56450.0,STARLINK-5970,PAYLOAD,2024-03-12 23:58:19,14.98332513,0.0003113,70.0005,176.7514,269.1561,90.9242,0.00011646,1.297e-05,0.0,0 STARLINK-5970,1 56450U 23064C   24072.99883222  .00001297  00000-0  11646-3 0  9993,2 56450  70.0005 176.7514 0003113 269.1561  90.9242 14.98332513 46750,6950.185,96.107,574.214,569.887,0.0
56450.0,STARLINK-5970,PAYLOAD,2024-03-13 12:47:22,14.98344083,0.0003297,69.9999,175.404,270.1,89.9781,0.0001906,2.183e-05,0.0,0 STARLINK-5970,1 56450U 23064C   24073.53290071  .00002183  00000-0  19060-3 0  9991,2 56450  69.9999 175.4040 0003297 270.1000  89.9781 14.98344083 46832,6950.149,96.106,574.306,569.723,0.0
56450.0,STARLINK-5970,PAYLOAD,2024-03-14 06:24:51,14.98346203,0.0003313,69.9999,173.5528,268.0715,92.0065,0.0001178,1.313e-05,0.0,0 STARLINK-5970,1 56450U 23064C   24074.26726024  .00001313  00000-0  11780-3 0  9999,2 56450  69.9999 173.5528 0003313 268.0715  92.0065 14.98346203 46588,6950.143,96.106,574.31,569.705,0.0
56450.0,STARLINK-5970,PAYLOAD,2024-03-14 11:13:15,14.98344411,0.0003271,69.9999,173.0478,268.4576,91.6208,9.3306e-05,1.021e-05,0.0,0 STARLINK-5970,1 56450U 23064C   24074.46753987  .00001021  00000-0  93306-4 0  9990,2 56450  69.9999 173.0478 0003271 268.4576  91.6208 14.98344411 46975,6950.148,96.106,574.287,569.74,0.0
56450.0,STARLINK-5970,PAYLOAD,2024-03-15 11:15:16,14.983407,0.0003025,70.0004,170.5236,268.9252,91.156,-0.00015234,-1.911e-05,0.0,0 STARLINK-5970,1 56450U 23064C   24075.46894066 -.00001911  00000-0 -15234-3 0  9998,2 56450  70.0004 170.5236 0003025 268.9252  91.1560 14.98340700 47123,6950.16,96.106,574.127,569.922,0.0
56450.0,STARLINK-5970,PAYLOAD,2024-03-16 12:53:25,14.9833065,0.0002566,70.0017,167.833,250.8973,109.1908,-8.4126e-05,-1.097e-05,0.0,0 STARLINK-5970,1 56450U 23064C   24076.53709961 -.00001097  00000-0 -84126-4 0  9998,2 56450  70.0017 167.8330 0002566 250.8973 109.1908 14.98330650 47286,6950.191,96.107,573.839,570.272,0.0
56450.0,STARLINK-5970,PAYLOAD,2024-03-16 14:29:33,14.98330787,0.0002639,70.0014,167.6643,255.315,104.7717,-8.163e-05,-1.067e-05,0.0,0 STARLINK-5970,1 56450U 23064C   24076.60385956 -.00001067  00000-0 -81630-4 0  9994,2 56450  70.0014 167.6643 0002639 255.3150 104.7717 14.98330787 46937,6950.19,96.107,573.89,570.221,0.0
56450.0,STARLINK-5970,PAYLOAD,2024-03-16 16:05:41,14.98332075,0.0002783,70.001,167.4954,261.9978,98.0865,-6.7851e-05,-9.02e-06,0.0,0 STARLINK-5970,1 56450U 23064C   24076.67061850 -.00000902  00000-0 -67851-4 0  9991,2 56450  70.0010 167.4954 0002783 261.9978  98.0865 14.98332075 46949,6950.186,96.107,573.986,570.117,0.0
56450.0,STARLINK-5970,PAYLOAD,2024-03-17 12:55:26,14.98327491,0.0002851,70.0007,165.306,267.9528,92.1304,3.4686e-05,3.21e-06,0.0,0 STARLINK-5970,1 56450U 23064C   24077.53849835  .00000321  00000-0  34686-4 0  9997,2 56450  70.0007 165.3060 0002851 267.9528  92.1304 14.98327491 47437,6950.201,96.107,574.047,570.084,0.0
56450.0,STARLINK-5970,PAYLOAD,2024-03-17 14:31:34,14.98328761,0.0002811,70.0007,165.1377,267.6696,92.4142,4.69e-05,4.67e-06,0.0,0 STARLINK-5970,1 56450U 23064C   24077.60525722  .00000467  00000-0  46900-4 0  9994,2 56450  70.0007 165.1377 0002811 267.6696  92.4142 14.98328761 47080,6950.197,96.107,574.015,570.108,0.0
56450.0,STARLINK-5970,PAYLOAD,2024-03-17 16:07:42,14.983295,0.0002815,70.0007,164.9694,267.6317,92.452,5.421e-05,5.54e-06,0.0,0 STARLINK-5970,1 56450U 23064C   24077.67201658  .00000554  00000-0  54210-4 0  9990,2 56450  70.0007 164.9694 0002815 267.6317  92.4520 14.98329500 47096,6950.194,96.107,574.016,570.103,0.0
56450.0,STARLINK-5970,PAYLOAD,2024-03-18 11:21:18,14.98331267,0.0002814,70.0007,162.9496,267.4633,92.6204,4.2157e-05,4.1e-06,0.0,0 STARLINK-5970,1 56450U 23064C   24078.47313526  .00000410  00000-0  42157-4 0  9995,2 56450  70.0007 162.9496 0002814 267.4633  92.6204 14.98331267 47210,6950.189,96.107,574.01,570.098,0.0
56450.0,STARLINK-5970,PAYLOAD,2024-03-19 11:23:19,14.98334058,0.0002792,70.0007,160.4249,264.0645,96.0195,2.9965e-05,2.65e-06,0.0,0 STARLINK-5970,1 56450U 23064C   24079.47453153  .00000265  00000-0  29965-4 0  9997,2 56450  70.0007 160.4249 0002792 264.0645  96.0195 14.98334058 47364,6950.18,96.107,573.986,570.105,0.0
56450.0,STARLINK-5970,PAYLOAD,2024-03-19 12:59:27,14.98335502,0.0002742,70.0007,160.2565,262.6581,97.4266,4.7791e-05,4.77e-06,0.0,0 STARLINK-5970,1 56450U 23064C   24079.54128980  .00000477  00000-0  47791-4 0  9994,2 56450  70.0007 160.2565 0002742 262.6581  97.4266 14.98335502 47731,6950.176,96.107,573.947,570.135,0.0
56450.0,STARLINK-5970,PAYLOAD,2024-03-20 09:49:13,14.98324239,0.0003065,70.0001,158.0678,274.126,85.9549,-9.5564e-05,-1.233e-05,0.0,0 STARLINK-5970,1 56450U 23064C   24080.40918037 -.00001233  00000-0 -95564-4 0  9995,2 56450  70.0001 158.0678 0003065 274.1260  85.9549 14.98324239 47861,6950.211,96.107,574.206,569.945,0.0
56450.0,STARLINK-5970,PAYLOAD,2024-03-20 13:01:29,14.98325574,0.0002967,70.0,157.7311,270.735,89.3469,-8.0154e-05,-1.049e-05,0.0,0 STARLINK-5970,1 56450U 23064C   24080.54269928 -.00001049  00000-0 -80154-4 0  9992,2 56450  70.0000 157.7311 0002967 270.7350  89.3469 14.98325574 47527,6950.207,96.107,574.134,570.009,0.0
56450.0,STARLINK-5970,PAYLOAD,2024-03-20 22:38:17,14.98324587,0.0002941,70.0001,156.7209,271.1845,88.8977,-7.1522e-05,-9.46e-06,0.0,0 STARLINK-5970,1 56450U 23064C   24080.94326054 -.00000946  00000-0 -71522-4 0  9994,2 56450  70.0001 156.7209 0002941 271.1845  88.8977 14.98324587 47586,6950.21,96.107,574.119,570.031,0.0
